NORAD_CAT_ID,OBJECT_NAME,OBJECT_TYPE,EPOCH,MEAN_MOTION,ECCENTRICITY,INCLINATION,RA_OF_ASC_NODE,ARG_OF_PERICENTER,MEAN_ANOMALY,BSTAR,MEAN_MOTION_DOT,MEAN_MOTION_DDOT,TLE_LINE0,TLE_LINE1,TLE_LINE2,SEMIMAJOR_AXIS,PERIOD,APOGEE,PERIGEE,DECAYED
51727.0,STARLINK-3532,PAYLOAD,2022-11-08 05:13:16,15.08845662,0.000228,53.2189,34.5555,21.65,338.4588,0.00021352,3.112e-05,0.0,0 STARLINK-3532,1 51727U 22016P   22312.21754785  .00003112  00000-0  21352-3 0  9995,2 51727  53.2189  34.5555 0002280  21.6500 338.4588 15.08845662 40687,6917.863,95.437,541.305,538.151,0.0
51727.0,STARLINK-3532,PAYLOAD,2022-11-08 09:59:25,15.08853517,0.0002344,53.2192,33.6645,26.2798,333.8313,0.00020521,2.98e-05,0.0,0 STARLINK-3532,1 51727U 22016P   22312.41626254  .00002980  00000-0  20521-3 0  9995,2 51727  53.2192  33.6645 0002344  26.2798 333.8313 15.08853517 39650,6917.839,95.437,541.326,538.0830000000002,0.0
51727.0,STARLINK-3532,PAYLOAD,2022-11-09 11:25:34,15.08849383,0.0002298,53.219,28.9059,28.1646,331.94699999999995,8.871399999999999e-05,1.124e-05,0.0,0 STARLINK-3532,1 51727U 22016P   22313.47609584  .00001124  00000-0  88714-4 0  9997,2 51727  53.2190  28.9059 0002298  28.1646 331.9470 15.08849383 39812,6917.852,95.437,541.306,538.127,0.0
51727.0,STARLINK-3532,PAYLOAD,2022-11-10 04:54:51,15.08834232,0.0002322,53.2189,25.6348,25.3693,334.7413,-0.0001865,-3.255e-05,0.0,0 STARLINK-3532,1 51727U 22016P   22314.20475726 -.00003255  00000-0 -18650-3 0  9998,2 51727  53.2189  25.6348 0002322  25.3693 334.7413 15.08834232 40989,6917.898,95.438,541.369,538.1569999999998,0.0
51727.0,STARLINK-3532,PAYLOAD,2022-11-10 11:16:23,15.08838329,0.0002683,53.2185,24.4475,30.3747,329.7401,-0.00017802,-3.121e-05,0.0,0 STARLINK-3532,1 51727U 22016P   22314.46971597 -.00003121  00000-0 -17802-3 0  9993,2 51727  53.2185  24.4475 0002683  30.3747 329.7401 15.08838329 39967,6917.885,95.438,541.607,537.894,0.0
51727.0,STARLINK-3532,PAYLOAD,2022-11-11 11:07:10,15.08837898,0.0002736,53.2183,19.9863,31.6192,328.4965,-1.8983e-05,-5.91e-06,0.0,0 STARLINK-3532,1 51727U 22016P   22315.46331231 -.00000591  00000-0 -18983-4 0  9999,2 51727  53.2183  19.9863 0002736  31.6192 328.4965 15.08837898 41179,6917.887,95.438,541.645,537.859,0.0
51727.0,STARLINK-3532,PAYLOAD,2022-11-12 04:36:25,15.0882809,0.0002653,53.2182,16.7148,33.1713,326.9445,0.00010716,1.417e-05,0.0,0 STARLINK-3532,1 51727U 22016P   22316.19196318  .00001417  00000-0  10716-3 0  9996,2 51727  53.2182  16.7148 0002653  33.1713 326.9445 15.08828090 41285,6917.917,95.438,541.617,537.946,0.0
51727.0,STARLINK-3532,PAYLOAD,2022-11-12 10:57:57,15.08839604,0.0002684,53.2185,15.5265,37.4143,322.7035,0.00017561,2.508e-05,0.0,0 STARLINK-3532,1 51727U 22016P   22316.45691544  .00002508  00000-0  17561-3 0  9993,2 51727  53.2185  15.5265 0002684  37.4143 322.7035 15.08839604 41320,6917.882,95.438,541.6030000000002,537.89,0.0
51727.0,STARLINK-3532,PAYLOAD,2022-11-12 20:30:16,15.08830848,0.000281,53.2181,13.7421,34.1339,325.9833,0.00018839,2.71e-05,0.0,0 STARLINK-3532,1 51727U 22016P   22316.85436243  .00002710  00000-0  18839-3 0  9994,2 51727  53.2181  13.7421 0002810  34.1339 325.9833 15.08830848 40323,6917.908,95.438,541.717,537.8290000000002,0.0
51727.0,STARLINK-3532,PAYLOAD,2022-11-13 10:48:45,15.08832158,0.0002646,53.2179,11.0637,29.634,330.4801,-6.0387e-07,-2.98e-06,0.0,0 STARLINK-3532,1 51727U 22016P   22317.45052751 -.00000298  00000-0 -60387-6 0  9998,2 51727  53.2179  11.0637 0002646  29.6340 330.4801 15.08832158 41477,6917.904,95.438,541.6,537.939,0.0
51727.0,STARLINK-3532,PAYLOAD,2022-11-14 10:39:33,15.08833844,0.0002547,53.2187,6.6052,34.1956,325.92,-8.5927e-05,-1.656e-05,0.0,0 STARLINK-3532,1 51727U 22016P   22318.44413515 -.00001656  00000-0 -85927-4 0  9991,2 51727  53.2187   6.6052 0002547  34.1956 325.9200 15.08833844 40565,6917.899,95.438,541.526,538.002,0.0
51727.0,STARLINK-3532,PAYLOAD,2022-11-14 20:11:51,15.08841194,0.0002666,53.2187,4.8206,32.8115,327.3042,-5.8866e-05,-1.225e-05,0.0,0 STARLINK-3532,1 51727U 22016P   22318.84157036 -.00001225  00000-0 -58866-4 0  9992,2 51727  53.2187   4.8206 0002666  32.8115 327.3042 15.08841194 41681,6917.877,95.437,541.586,537.8969999999998,0.0
51727.0,STARLINK-3532,PAYLOAD,2022-11-15 12:05:43,15.08832328,0.0002833,53.2187,1.8473,23.5094,336.6027,-6.0964e-06,-3.86e-06,0.0,0 STARLINK-3532,1 51727U 22016P   22319.50397584 -.00000386  00000-0 -60964-5 0  9990,2 51727  53.2187   1.8473 0002833  23.5094 336.6027 15.08832328 40722,6917.904,95.438,541.729,537.809,0.0
51727.0,STARLINK-3532,PAYLOAD,2022-11-16 10:21:07,15.08832147,0.0002625,53.2178,357.6824,27.4375,332.6756,7.4422e-05,8.96e-06,0.0,0 STARLINK-3532,1 51727U 22016P   22320.43133695  .00000896  00000-0  74422-4 0  9992,2 51727  53.2178 357.6824 0002625  27.4375 332.6756 15.08832147 40867,6917.904,95.438,541.585,537.953,0.0
51727.0,STARLINK-3532,PAYLOAD,2022-11-16 19:53:25,15.08841276,0.0002748,53.2183,355.8984,28.0452,332.0688,6.283e-05,7.12e-06,0.0,0 STARLINK-3532,1 51727U 22016P   22320.82877247  .00000712  00000-0  62830-4 0  9990,2 51727  53.2183 355.8984 0002748  28.0452 332.0688 15.08841276 41984,6917.876,95.437,541.643,537.84,0.0
51727.0,STARLINK-3532,PAYLOAD,2022-11-17 10:11:53,15.08843571,0.0002969,53.218,353.2245,25.1233,334.9904,0.0001065,1.407e-05,0.0,0 STARLINK-3532,1 51727U 22016P   22321.42492919  .00001407  00000-0  10650-3 0  9990,2 51727  53.2180 353.2245 0002969  25.1233 334.9904 15.08843571 41019,6917.869000000002,95.437,541.788,537.681,0.0
51727.0,STARLINK-3532,PAYLOAD,2022-11-18 02:05:45,15.08836194,0.0003015,53.2179,350.25199999999984,29.2011,330.9149,0.00010938,1.453e-05,0.0,0 STARLINK-3532,1 51727U 22016P   22322.08732933  .00001453  00000-0  10938-3 0  9996,2 51727  53.2179 350.2520 0003015  29.2011 330.9149 15.08836194 42170,6917.892,95.438,541.8430000000002,537.6709999999998,0.0
51727.0,STARLINK-3532,PAYLOAD,2022-11-18 08:27:18,15.08834368,0.0002918,53.2177,349.0614,25.6327,334.4809,3.1843e-05,2.18e-06,0.0,0 STARLINK-3532,1 51727U 22016P   22322.35229342  .00000218  00000-0  31843-4 0  9998,2 51727  53.2177 349.0614 0002918  25.6327 334.4809 15.08834368 41159,6917.898,95.438,541.781,537.744,0.0
51727.0,STARLINK-3532,PAYLOAD,2022-11-19 08:18:04,15.08839082,0.0002866,53.2176,344.6002,27.4618,332.6525,-2.5865e-06,-3.3e-06,0.0,0 STARLINK-3532,1 51727U 22016P   22323.34589018 -.00000330  00000-0 -25865-5 0  9992,2 51727  53.2176 344.6002 0002866  27.4618 332.6525 15.08839082 41305,6917.8830000000025,95.438,541.731,537.766,0.0
51727.0,STARLINK-3532,PAYLOAD,2022-11-20 08:08:52,15.08833819,0.0002898999999999,53.2176,340.1384,28.1291,331.9857,5.2991e-06,-2.04e-06,0.0,0 STARLINK-3532,1 51727U 22016P   22324.33949322 -.00000204  00000-0  52991-5 0  9999,2 51727  53.2176 340.1384 0002899  28.1291 331.9857 15.08833819 41458,6917.899,95.438,541.77,537.759,0.0
51727.0,STARLINK-3532,PAYLOAD,2022-11-20 17:41:10,15.08839504,0.0002937,53.2185,338.3549,29.5834,330.5324,3.3976e-06,-2.35e-06,0.0,0 STARLINK-3532,1 51727U 22016P   22324.73693038 -.00000235  00000-0  33976-5 0  9999,2 51727  53.2185 338.3549 0002937  29.5834 330.5324 15.08839504 41519,6917.882,95.438,541.779,537.715,0.0
51727.0,STARLINK-3532,PAYLOAD,2022-11-21 04:48:53,15.088321,0.0002628999999999,53.2197,336.2736,35.3596,324.757,2.7918e-06,-2.44e-06,0.0,0 STARLINK-3532,1 51727U 22016P   22325.20061529 -.00000244  00000-0  27918-5 0  9995,2 51727  53.2197 336.2736 0002629  35.3596 324.7570 15.08832100 42643,6917.905,95.438,541.5880000000002,537.951,0.0
51727.0,STARLINK-3532,PAYLOAD,2022-11-21 06:24:16,15.08831575,0.0002639,53.2195,335.9761,35.1672,324.9494,-5.6872e-07,-2.98e-06,0.0,0 STARLINK-3532,1 51727U 22016P   22325.26685606 -.00000298  00000-0 -56872-6 0  9991,2 51727  53.2195 335.9761 0002639  35.1672 324.9494 15.08831575 41594,6917.906,95.438,541.597,537.946,0.0
51727.0,STARLINK-3532,PAYLOAD,2022-11-22 04:39:39,15.0884101,0.0002729,53.2203,331.8137,34.4352,325.6816,8.1887e-05,1.015e-05,0.0,0 STARLINK-3532,1 51727U 22016P   22326.19420891  .00001015  00000-0  81887-4 0  9995,2 51727  53.2203 331.8137 0002729  34.4352 325.6816 15.08841010 42797,6917.877,95.437,541.63,537.854,0.0
51727.0,STARLINK-3532,PAYLOAD,2022-11-22 07:50:26,15.08837892,0.0002751,53.2186,331.2175,30.5592,329.556,5.2663e-05,5.5e-06,0.0,0 STARLINK-3532,1 51727U 22016P   22326.32669177  .00000550  00000-0  52663-4 0  9995,2 51727  53.2186 331.2175 0002751  30.5592 329.5560 15.08837892 41758,6917.887,95.438,541.655,537.849,0.0
51727.0,STARLINK-3532,PAYLOAD,2022-11-23 04:30:27,15.08836926,0.0002866,53.2186,327.3532,31.0151,329.101,5.9243e-05,6.54e-06,0.0,0 STARLINK-3532,1 51727U 22016P   22327.18781380  .00000654  00000-0  59243-4 0  9997,2 51727  53.2186 327.3532 0002866  31.0151 329.1010 15.08836926 42940,6917.89,95.438,541.737,537.7719999999998,0.0
51727.0,STARLINK-3532,PAYLOAD,2022-11-23 09:16:37,15.08831096,0.000283,53.2186,326.4587,29.2577,330.8573,9.1544e-06,-1.43e-06,0.0,0 STARLINK-3532,1 51727U 22016P   22327.38653960 -.00000143  00000-0  91544-5 0  9996,2 51727  53.2186 326.4587 0002830  29.2577 330.8573 15.08831096 42971,6917.908,95.438,541.73,537.815,0.0
51727.0,STARLINK-3532,PAYLOAD,2022-11-23 17:13:32,15.08833673,0.0002893,53.2189,324.9721,29.7781,330.3375,-3.1021999999999995e-05,-7.82e-06,0.0,0 STARLINK-3532,1 51727U 22016P   22327.71774043 -.00000782  00000-0 -31022-4 0  9993,2 51727  53.2189 324.9721 0002893  29.7781 330.3375 15.08833673 41964,6917.9,95.438,541.766,537.763,0.0
51727.0,STARLINK-3532,PAYLOAD,2022-11-24 04:21:14,15.08840665,0.0002971,53.2182,322.892,28.6737,331.4418,8.5478e-06,-1.53e-06,0.0,0 STARLINK-3532,1 51727U 22016P   22328.18141571 -.00000153  00000-0  85478-5 0  9995,2 51727  53.2182 322.8920 0002971  28.6737 331.4418 15.08840665 43096,6917.878000000002,95.438,541.799,537.688,0.0
